NORAD_CAT_ID,OBJECT_NAME,OBJECT_TYPE,EPOCH,MEAN_MOTION,ECCENTRICITY,INCLINATION,RA_OF_ASC_NODE,ARG_OF_PERICENTER,MEAN_ANOMALY,BSTAR,MEAN_MOTION_DOT,MEAN_MOTION_DDOT,TLE_LINE0,TLE_LINE1,TLE_LINE2,SEMIMAJOR_AXIS,PERIOD,APOGEE,PERIGEE,DECAYED
56459.0,STARLINK-6048,PAYLOAD,2024-01-27 04:08:03,14.98327992,0.0002488,70.0,292.1182,253.4841,106.6045,5.3294e-05,5.43e-06,0.0,0 STARLINK-6048,1 56459U 23064M   24027.17226556  .00000543  00000-0  53294-4 0  9992,2 56459  70.0000 292.1182 0002488 253.4841 106.6045 14.98327992 39897,6950.199,96.107,573.793,570.335,0.0
56459.0,STARLINK-6048,PAYLOAD,2024-01-27 20:09:23,14.9834163,0.0003379,69.998,290.432,278.8372,81.2405,0.0001372,1.545e-05,0.0,0 STARLINK-6048,1 56459U 23064M   24027.83985115  .00001545  00000-0  13720-3 0  9990,2 56459  69.9980 290.4320 0003379 278.8372  81.2405 14.98341630 39990,6950.157,96.106,574.37,569.673,0.0
56459.0,STARLINK-6048,PAYLOAD,2024-01-27 21:45:31,14.98338876,0.0003485,69.999,290.2655,279.9044,80.1721,0.00011201,1.244e-05,0.0,0 STARLINK-6048,1 56459U 23064M   24027.90661339  .00001244  00000-0  11201-3 0  9995,2 56459  69.9990 290.2655 0003485 279.9044  80.1721 14.98338876 39645,6950.165,96.106,574.453,569.608,0.0
56459.0,STARLINK-6048,PAYLOAD,2024-01-28 02:33:57,14.98320586,0.0002519,70.0,289.7593,267.1044,92.9826,-9.3632e-05,-1.21e-05,0.0,0 STARLINK-6048,1 56459U 23064M   24028.10690979 -.00001210  00000-0 -93632-4 0  9994,2 56459  70.0000 289.7593 0002519 267.1044  92.9826 14.98320586 40031,6950.222,96.108,573.838,570.336,0.0
56459.0,STARLINK-6048,PAYLOAD,2024-01-28 20:11:25,14.98322427,0.000336,69.9983,287.9045,280.9601,79.118,-5.2329e-06,-1.55e-06,0.0,0 STARLINK-6048,1 56459U 23064M   24028.84126727 -.00000155  00000-0 -52329-5 0  9996,2 56459  69.9983 287.9045 0003360 280.9601  79.1180 14.98322427 40145,6950.216,96.107,574.417,569.746,0.0
56459.0,STARLINK-6048,PAYLOAD,2024-01-28 21:47:33,14.98323402,0.0003329,69.9984,287.7365,280.9445,79.134,-1.2986e-05,-2.48e-06,0.0,0 STARLINK-6048,1 56459U 23064M   24028.90802716 -.00000248  00000-0 -12986-4 0  9999,2 56459  69.9984 287.7365 0003329 280.9445  79.1340 14.98323402 39791,6950.213,96.107,574.392,569.765,0.0
56459.0,STARLINK-6048,PAYLOAD,2024-01-29 02:35:57,14.98328758,0.0002777,69.9994,287.2331,268.8471,91.237,6.2842e-05,6.57e-06,0.0,0 STARLINK-6048,1 56459U 23064M   24029.10830136  .00000657  00000-0  62842-4 0  9997,2 56459  69.9994 287.2331 0002777 268.8471  91.2370 14.98328758 40182,6950.197,96.107,573.992,570.132,0.0
56459.0,STARLINK-6048,PAYLOAD,2024-01-30 02:38:00,14.98313302,0.0004115,69.9977,284.7051,328.6918,31.3995,-1.1877e-05,-2.35e-06,0.0,0 STARLINK-6048,1 56459U 23064M   24030.10972490 -.00000235  00000-0 -11877-4 0  9995,2 56459  69.9977 284.7051 0004115 328.6918  31.3995 14.98313302 40337,6950.245,96.108,574.97,569.25,0.0
56459.0,STARLINK-6048,PAYLOAD,2024-01-30 21:51:36,14.98316496,0.0003309,69.9974,282.6852,271.1029,88.9751,-0.00011339,-1.445e-05,0.0,0 STARLINK-6048,1 56459U 23064M   24030.91084359 -.00001445  00000-0 -11339-3 0  9998,2 56459  69.9974 282.6852 0003309 271.1029  88.9751 14.98316496 40097,6950.235,96.108,574.399,569.8,0.0
56459.0,STARLINK-6048,PAYLOAD,2024-01-31 02:40:00,14.98321126,0.0002647,69.9993,282.1835,260.4385,99.6475,-2.5749e-05,-4e-06,0.0,0 STARLINK-6048,1 56459U 23064M   24031.11112019 -.00000400  00000-0 -25749-4 0  9997,2 56459  69.9993 282.1835 0002647 260.4385  99.6475 14.98321126 40485,6950.22,96.108,573.925,570.246,0.0
56459.0,STARLINK-6048,PAYLOAD,2024-01-31 15:29:04,14.98320603,0.0003059,69.9978,280.8356,261.2783,98.8029,0.00022057,2.539e-05,0.0,0 STARLINK-6048,1 56459U 23064M   24031.64519310  .00002539  00000-0  22057-3 0  9991,2 56459  69.9978 280.8356 0003059 261.2783  98.8029 14.98320603 40564,6950.222,96.108,574.213,569.961,0.0
56459.0,STARLINK-6048,PAYLOAD,2024-02-01 02:42:00,14.98330138,0.0002854,69.9985,279.658,262.0551,98.0284,0.00024068,2.78e-05,0.0,0 STARLINK-6048,1 56459U 23064M   24032.11250917  .00002780  00000-0  24068-3 0  9991,2 56459  69.9985 279.6580 0002854 262.0551  98.0284 14.98330138 40638,6950.192,96.107,574.041,570.074,0.0
56459.0,STARLINK-6048,PAYLOAD,2024-02-01 15:31:05,14.98338138,0.0003125,69.9977,278.3131,262.5645,97.5159,0.00015379,1.743e-05,0.0,0 STARLINK-6048,1 56459U 23064M   24032.64658586  .00001743  00000-0  15379-3 0  9996,2 56459  69.9977 278.3131 0003125 262.5645  97.5159 14.98338138 40350,6950.168,96.106,574.205,569.861,0.0
56459.0,STARLINK-6048,PAYLOAD,2024-02-02 02:44:00,14.9834507,0.000305,69.9979,277.1352,262.7626,97.3187,0.00020766,2.387e-05,0.0,0 STARLINK-6048,1 56459U 23064M   24033.11389647  .00002387  00000-0  20766-3 0  9999,2 56459  69.9979 277.1352 0003050 262.7626  97.3187 14.98345070 40781,6950.146,96.106,574.131,569.891,0.0
56459.0,STARLINK-6048,PAYLOAD,2024-02-02 18:45:22,14.9833404,0.0002389,69.999,275.4531,261.4293,98.6595,1.0192e-05,2.9e-07,0.0,0 STARLINK-6048,1 56459U 23064M   24033.78150516  .00000029  00000-0  10192-4 0  9997,2 56459  69.9990 275.4531 0002389 261.4293  98.6595 14.98334040 40887,6950.18,96.107,573.706,570.385,0.0
56459.0,STARLINK-6048,PAYLOAD,2024-02-02 21:57:38,14.98335508,0.0002616,69.9991,275.1153,254.6173,105.4697,-5.1416e-05,-7.06e-06,0.0,0 STARLINK-6048,1 56459U 23064M   24033.91502470 -.00000706  00000-0 -51416-4 0  9990,2 56459  69.9991 275.1153 0002616 254.6173 105.4697 14.98335508 40542,6950.176,96.107,573.859,570.223,0.0
56459.0,STARLINK-6048,PAYLOAD,2024-02-03 01:09:54,14.98333827,0.0002664,69.999,274.7791,257.459,102.6271,-7.0881e-05,-9.39e-06,0.0,0 STARLINK-6048,1 56459U 23064M   24034.04854586 -.00000939  00000-0 -70881-4 0  9998,2 56459  69.9990 274.7791 0002664 257.4590 102.6271 14.98333827 40562,6950.181,96.107,573.898,570.195,0.0
56459.0,STARLINK-6048,PAYLOAD,2024-02-03 18:47:23,14.98332537,0.0002566,69.9994,272.9298,249.3445,110.7439,-0.00013531,-1.707e-05,0.0,0 STARLINK-6048,1 56459U 23064M   24034.78290578 -.00001707  00000-0 -13531-3 0  9996,2 56459  69.9994 272.9298 0002566 249.3445 110.7439 14.98332537 41034,6950.185,96.107,573.833,570.267,0.0
56459.0,STARLINK-6048,PAYLOAD,2024-02-03 21:59:39,14.98330798,0.0002616,69.9993,272.5924,247.004,113.0843,-0.0001539,-1.929e-05,0.0,0 STARLINK-6048,1 56459U 23064M   24034.91642694 -.00001929  00000-0 -15390-3 0  9992,2 56459  69.9993 272.5924 0002616 247.0040 113.0843 14.98330798 40690,6950.19,96.107,573.874,570.237,0.0
56459.0,STARLINK-6048,PAYLOAD,2024-02-04 01:11:55,14.9832785,0.0002725,69.9986,272.2545,264.4043,95.6806,-0.00020244,-2.507e-05,0.0,0 STARLINK-6048,1 56459U 23064M   24035.04995102 -.00002507  00000-0 -20244-3 0  9999,2 56459  69.9986 272.2545 0002725 264.4043  95.6806 14.98327850 41077,6950.2,96.107,573.958,570.171,0.0
56459.0,STARLINK-6048,PAYLOAD,2024-02-04 20:25:32,14.98328078,0.0003009,69.9976,270.2326,268.5553,91.5262,8.762e-06,1.2e-07,0.0,0 STARLINK-6048,1 56459U 23064M   24035.85106554  .00000012  00000-0  87620-5 0  9993,2 56459  69.9976 270.2326 0003009 268.5553  91.5262 14.98328078 41195,6950.199,96.107,574.155,569.973,0.0
56459.0,STARLINK-6048,PAYLOAD,2024-02-04 22:01:40,14.98328225,0.0003,69.9975,270.0638,267.6694,92.4122,1.1661e-05,4.6e-07,0.0,0 STARLINK-6048,1 56459U 23064M   24035.91782532  .00000046  00000-0  11661-4 0  9994,2 56459  69.9975 270.0638 0003000 267.6694  92.4122 14.98328225 40845,6950.198,96.107,574.148,569.978,0.0
56459.0,STARLINK-6048,PAYLOAD,2024-02-05 09:14:36,14.98331495,0.0002973,69.9976,268.8857,267.3598,92.7221,9.0958e-05,9.92e-06,0.0,0 STARLINK-6048,1 56459U 23064M   24036.38514066  .00000992  00000-0  90958-4 0  9997,2 56459  69.9976 268.8857 0002973 267.3598  92.7221 14.98331495 40916,6950.188,96.107,574.12,569.987,0.0
56459.0,STARLINK-6048,PAYLOAD,2024-02-05 20:27:32,14.98331209,0.0002913,69.9977,267.7074,267.8025,92.2801,0.00014191,1.601e-05,0.0,0 STARLINK-6048,1 56459U 23064M   24036.85245931  .00001601  00000-0  14191-3 0  9993,2 56459  69.9977 267.7074 0002913 267.8025  92.2801 14.98331209 41340,6950.189,96.107,574.079,570.03,0.0
56459.0,STARLINK-6048,PAYLOAD,2024-02-05 22:03:40,14.98331761,0.0002906,69.9976,267.5391,267.6407,92.4419,0.00014611,1.651e-05,0.0,0 STARLINK-6048,1 56459U 23064M   24036.91921877  .00001651  00000-0  14611-3 0  9992,2 56459  69.9976 267.5391 0002906 267.6407  92.4419 14.98331761 40993,6950.187,96.107,574.072,570.033,0.0
56459.0,STARLINK-6048,PAYLOAD,2024-02-06 01:15:56,14.98334659,0.0002874,69.9977,267.2025,267.8954,92.1876,0.0001752,1.998e-05,0.0,0 STARLINK-6048,1 56459U 23064M   24037.05273587  .00001998  00000-0  17520-3 0  9992,2 56459  69.9977 267.2025 0002874 267.8954  92.1876 14.98334659 41015,6950.178,96.107,574.041,570.046,0.0
56459.0,STARLINK-6048,PAYLOAD,2024-02-06 22:05:41,14.98333931,0.0002726,69.998,265.0144,270.5252,89.5594,7.4291e-06,-4e-08,0.0,0 STARLINK-6048,1 56459U 23064M   24037.92061919 -.00000004  00000-0  74291-5 0  9990,2 56459  69.9980 265.0144 0002726 270.5252  89.5594 14.98333931 41148,6950.181,96.107,573.94,570.151,0.0
56459.0,STARLINK-6048,PAYLOAD,2024-02-07 01:17:57,14.98335315,0.0002717,69.9981,264.6779,271.1667,88.9181,2.2309e-05,1.73e-06,0.0,0 STARLINK-6048,1 56459U 23064M   24038.05413748  .00000173  00000-0  22309-4 0  9994,2 56459  69.9981 264.6779 0002717 271.1667  88.9181 14.98335315 41520,6950.176,96.107,573.93,570.153,0.0
56459.0,STARLINK-6048,PAYLOAD,2024-02-07 14:07:02,14.98334726,0.0002639,69.9982,263.3313,272.1792,87.9065,-4.7935e-05,-6.65e-06,0.0,0 STARLINK-6048,1 56459U 23064M   24038.58821845 -.00000665  00000-0 -47935-4 0  9993,2 56459  69.9982 263.3313 0002639 272.1792  87.9065 14.98334726 41248,6950.178,96.107,573.877,570.209,0.0
56459.0,STARLINK-6048,PAYLOAD,2024-02-07 22:07:42,14.98332411,0.0002674,69.9981,262.4895,271.5867,88.4986,-5.8372e-05,-7.89e-06,0.0,0 STARLINK-6048,1 56459U 23064M   24038.92201905 -.00000789  00000-0 -58372-4 0  9994,2 56459  69.9981 262.4895 0002674 271.5867  88.4986 14.98332411 41299,6950.185,96.107,573.909,570.192,0.0
